KUIPER-00104            
1 65142U 25171L   25356.10407852 -.00019714  00000+0 -27717-2 0  9991
2 65142  51.9027 140.2495 0004129 282.0807  77.9691 14.76652132 21416
KUIPER-00105            
1 65143U 25171M   25355.80737428  .00003108  00000+0  43612-3 0  9994
2 65143  51.8986 150.0453 0012401 203.2304 156.8100 14.79953853 21253
KUIPER-00106            
1 65144U 25171N   25355.73516097  .00004822  00000+0  44109-3 0  9990
2 65144  51.8910 149.0763 0009183 199.0272 161.0355 14.96567571 21260
KUIPER-00107            
1 65145U 25171P   25356.16668980 -.00157346  00000+0 -17228-1 0  9990
2 65145  51.8989 131.2348 0007683 267.2360 299.5031 14.88234947  4873
KUIPER-00108            
1 65146U 25171Q   25356.11638443  .00003685  00000+0  51135-3 0  9998
2 65146  51.9007 143.6171 0008145 213.0990 146.9463 14.79998564 21379
KUIPER-00109            
1 65147U 25171R   25356.08823120  .00003684  00000+0  51169-3 0  9999
2 65147  51.9011 138.6857 0011590 228.7436 131.2529 14.79938734 21436
KUIPER-00110            
1 65148U 25171S   25355.83868713  .00014165  00000+0  18789-2 0  9995
2 65148  51.9005 152.3985 0002337 214.7346 145.3464 14.80026791 21212
KUIPER-00111            
1 65149U 25171T   25355.73174301  .00003030  00000+0  42618-3 0  9996
2 65149  51.8966 157.7971 0008458 212.4737 147.5706 14.79950184 21135
